*******************************************************************************
 Revised: July 31, 2013                  Sun                                 10

 PHYSICAL PROPERTIES (updated 2018-Aug-15):
  GM, km^3/s^2          = 132712440041.93938  Mass, 10^24 kg        = ~1988500
  Vol. mean radius, km  = 695700              Volume, 10^12 km^3    = 1412000
  Solar radius (IAU)    = 696000 km           Mean density, g/cm^3  = 1.408
  Radius (photosphere)  = 696500 km           Angular diam at 1 AU  = 1919.3"
  Photosphere temp., K  = 6600 (bottom)       Photosphere temp., K  = 4400(top)
  Photospheric depth    = ~500 km             Chromospheric depth   = ~2500 km
  Flatness, f           = 0.00005             Adopted sid. rot. per.= 25.38 d
  Surface gravity       =  274.0 m/s^2        Escape speed, km/s    =  617.7
  Pole (RA,DEC), deg.   = (286.13, 63.87)     Obliquity to ecliptic = 7.25 deg.
  Solar constant (1 AU) = 1367.6 W/m^2        Luminosity, 10^24 J/s = 382.8
  Mass-energy conv rate = 4.260 x 10^9 kg/s   Effective temp, K     = 5772
  Sunspot cycle         = 11.4 yr             Cycle 24 sunspot min. = 2008 A.D.

  Motion relative to nearby stars = apex : R.A.= 271 deg.; DEC.= +30 deg.
                                    speed: 19.4 km/s (0.0112 au/day)
  Motion relative to 2.73K BB/CBR = apex : l= 264.7 +- 0.8; b= 48.2 +- 0.5 deg.
                                    speed: 369 +-11 km/s
*******************************************************************************


*******************************************************************************
Ephemeris / WWW_USER Sat Jan 28 00:14:27 2023 Pasadena, USA      / Horizons    
*******************************************************************************
Target body name: Sun (10)                        {source: DE441}
Center body name: Earth (399)                     {source: DE441}
Center-site name: (user defined site below)
*******************************************************************************
Start time      : A.D. 2000-Jan-01 00:00:00.0000 UT      
Stop  time      : A.D. 2099-Dec-31 00:00:00.0000 UT      
Step-size       : 1440 minutes
*******************************************************************************
Target pole/equ : IAU_SUN                         {East-longitude positive}
Target radii    : 696000.0 x 696000.0 x 696000.0 k{Equator, meridian, pole}    
Center geodetic : 8.53330000,47.3667000,0.0000000 {E-lon(deg),Lat(deg),Alt(km)}
Center cylindric: 8.53330000,4327.78336,4669.4727 {E-lon(deg),Dxy(km),Dz(km)}
Center pole/equ : ITRF93                          {East-longitude positive}
Center radii    : 6378.1 x 6378.1 x 6356.8 km     {Equator, meridian, pole}    
Target primary  : Sun (R_eq= 696000.000) km
Vis. interferer : MOON (R_eq= 1737.400) km        {source: DE441}
Rel. light bend : Sun                             {source: DE441}
Rel. lght bnd GM: 1.3271E+11 km^3/s^2                                          
Atmos refraction: NO (AIRLESS)
RA format       : DEG
Time format     : BOTH
EOP file        : eop.230126.p230421                                           
EOP coverage    : DATA-BASED 1962-JAN-20 TO 2023-JAN-26. PREDICTS-> 2023-APR-20
Units conversion: 1 au= 149597870.700 km, c= 299792.458 km/s, 1 day= 86400.0 s 
Table cut-offs 1: Elevation (-90.0deg=NO ),Airmass (>38.000=NO), Daylight (NO )
Table cut-offs 2: Solar elongation (  0.0,180.0=NO ),Local Hour Angle( 0.0=NO )
Table cut-offs 3: RA/DEC angular rate (     0.0=NO )                           
*******************************************************************************
 Date__(UT)__HR:MN Date_________JDUT     R.A._(a-appar)_DEC.  L_Ap_Hour_Ang
***************************************************************************
$$SOE
 2030-Jan-31 00:00 2462532.500000000     313.59985 -17.42849  -11.653376578
 2030-Feb-01 00:00 2462533.500000000     314.62195 -17.14733  -11.655805023
 2030-Feb-02 00:00 2462534.500000000     315.64067 -16.86112  -11.658008758
 2030-Feb-03 00:00 2462535.500000000     316.65599 -16.57000  -11.659986717
 2030-Feb-04 00:00 2462536.500000000     317.66789 -16.27407  -11.661738166
 2030-Feb-05 00:00 2462537.500000000     318.67639 -15.97346  -11.663262770
 2030-Feb-06 00:00 2462538.500000000     319.68148 -15.66828  -11.664560628
 2030-Feb-07 00:00 2462539.500000000     320.68317 -15.35865  -11.665632280
 2030-Feb-08 00:00 2462540.500000000     321.68149 -15.04469  -11.666478696
 2030-Feb-09 00:00 2462541.500000000     322.67646 -14.72652  -11.667101243
 2030-Feb-10 00:00 2462542.500000000  m  323.66811 -14.40425  -11.667501667
 2030-Feb-11 00:00 2462543.500000000  m  324.65647 -14.07800  -11.667682061
 2030-Feb-12 00:00 2462544.500000000  m  325.64157 -13.74788  -11.667644855
 2030-Feb-13 00:00 2462545.500000000  m  326.62345 -13.41402  -11.667392802
 2030-Feb-14 00:00 2462546.500000000  m  327.60216 -13.07653  -11.666928987
 2030-Feb-15 00:00 2462547.500000000  m  328.57774 -12.73552  -11.666256825
 2030-Feb-16 00:00 2462548.500000000  m  329.55024 -12.39110  -11.665380077
 2030-Feb-17 00:00 2462549.500000000  m  330.51973 -12.04339  -11.664302852
 2030-Feb-18 00:00 2462550.500000000  m  331.48627 -11.69249  -11.663029603
 2030-Feb-19 00:00 2462551.500000000  m  332.44992 -11.33851  -11.661565102
 2030-Feb-20 00:00 2462552.500000000  m  333.41078 -10.98155  -11.659914388
 2030-Feb-21 00:00 2462553.500000000  m  334.36891 -10.62171  -11.658082681
 2030-Feb-22 00:00 2462554.500000000  m  335.32442 -10.25911  -11.656075283
 2030-Feb-23 00:00 2462555.500000000  m  336.27739  -9.89385  -11.653897469
 2030-Feb-24 00:00 2462556.500000000  m  337.22789  -9.52604  -11.651554395
 2030-Feb-25 00:00 2462557.500000000     338.17600  -9.15579  -11.649051036
 2030-Feb-26 00:00 2462558.500000000     339.12178  -8.78322  -11.646392155
 2030-Feb-27 00:00 2462559.500000000     340.06531  -8.40844  -11.643582304
 2030-Feb-28 00:00 2462560.500000000     341.00663  -8.03157  -11.640625846
 2030-Mar-01 00:00 2462561.500000000     341.94580  -7.65274  -11.637526997
 2030-Mar-02 00:00 2462562.500000000     342.88288  -7.27205  -11.634289884
 2030-Mar-03 00:00 2462563.500000000     343.81794  -6.88963  -11.630918593
 2030-Mar-04 00:00 2462564.500000000     344.75104  -6.50558  -11.627417239
 2030-Mar-05 00:00 2462565.500000000     345.68224  -6.12003  -11.623790006
 2030-Mar-06 00:00 2462566.500000000     346.61162  -5.73308  -11.620041198
 2030-Mar-07 00:00 2462567.500000000     347.53924  -5.34485  -11.616175264
 2030-Mar-08 00:00 2462568.500000000     348.46519  -4.95545  -11.612196814
 2030-Mar-09 00:00 2462569.500000000     349.38953  -4.56499  -11.608110620
 2030-Mar-10 00:00 2462570.500000000     350.31233  -4.17357  -11.603921618
 2030-Mar-11 00:00 2462571.500000000  m  351.23367  -3.78132  -11.599634893
 2030-Mar-12 00:00 2462572.500000000  m  352.15364  -3.38832  -11.595255677
 2030-Mar-13 00:00 2462573.500000000  m  353.07230  -2.99470  -11.590789345
 2030-Mar-14 00:00 2462574.500000000  m  353.98974  -2.60055  -11.586241421
 2030-Mar-15 00:00 2462575.500000000  m  354.90603  -2.20597  -11.581617593
 2030-Mar-16 00:00 2462576.500000000  m  355.82127  -1.81108  -11.576923736
 2030-Mar-17 00:00 2462577.500000000  m  356.73553  -1.41597  -11.572165942
 2030-Mar-18 00:00 2462578.500000000  m  357.64892  -1.02073  -11.567350544
 2030-Mar-19 00:00 2462579.500000000  m  358.56154  -0.62546  -11.562484126
 2030-Mar-20 00:00 2462580.500000000  m  359.47349  -0.23025  -11.557573501
 2030-Mar-21 00:00 2462581.500000000  m    0.38488   0.16480  -11.552625641
 2030-Mar-22 00:00 2462582.500000000  m    1.29583   0.55962  -11.547647572
 2030-Mar-23 00:00 2462583.500000000  m    2.20645   0.95410  -11.542646242
 2030-Mar-24 00:00 2462584.500000000  m    3.11684   1.34816  -11.537628399
 2030-Mar-25 00:00 2462585.500000000       4.02708   1.74169  -11.532600498
 2030-Mar-26 00:00 2462586.500000000       4.93727   2.13459  -11.527568658
 2030-Mar-27 00:00 2462587.500000000       5.84749   2.52676  -11.522538659
 2030-Mar-28 00:00 2462588.500000000       6.75780   2.91810  -11.517515963
 2030-Mar-29 00:00 2462589.500000000       7.66829   3.30850  -11.512505755
 2030-Mar-30 00:00 2462590.500000000       8.57903   3.69786  -11.507512982
 2030-Mar-31 00:00 2462591.500000000       9.49009   4.08607  -11.502542398
 2030-Apr-01 00:00 2462592.500000000      10.40154   4.47304  -11.497598596
 2030-Apr-02 00:00 2462593.500000000      11.31346   4.85866  -11.492686050
 2030-Apr-03 00:00 2462594.500000000      12.22592   5.24283  -11.487809143
 2030-Apr-04 00:00 2462595.500000000      13.13899   5.62545  -11.482972201
 2030-Apr-05 00:00 2462596.500000000      14.05272   6.00642  -11.478179519
 2030-Apr-06 00:00 2462597.500000000      14.96720   6.38565  -11.473435375
 2030-Apr-07 00:00 2462598.500000000      15.88247   6.76303  -11.468744052
 2030-Apr-08 00:00 2462599.500000000      16.79861   7.13846  -11.464109840
 2030-Apr-09 00:00 2462600.500000000      17.71568   7.51185  -11.459537044
 2030-Apr-10 00:00 2462601.500000000  m   18.63373   7.88310  -11.455029991
 2030-Apr-11 00:00 2462602.500000000  m   19.55283   8.25212  -11.450593037
 2030-Apr-12 00:00 2462603.500000000  m   20.47304   8.61880  -11.446230583
 2030-Apr-13 00:00 2462604.500000000  m   21.39442   8.98306  -11.441947106
 2030-Apr-14 00:00 2462605.500000000  m   22.31705   9.34479  -11.437747189
 2030-Apr-15 00:00 2462606.500000000  m   23.24100   9.70392  -11.433635572
 2030-Apr-16 00:00 2462607.500000000  m   24.16634  10.06035  -11.429617186
 2030-Apr-17 00:00 2462608.500000000  m   25.09315  10.41400  -11.425697163
 2030-Apr-18 00:00 2462609.500000000  m   26.02153  10.76477  -11.421880805
 2030-Apr-19 00:00 2462610.500000000  m   26.95156  11.11260  -11.418173497
 2030-Apr-20 00:00 2462611.500000000  m   27.88332  11.45740  -11.414580572
 2030-Apr-21 00:00 2462612.500000000  m   28.81689  11.79908  -11.411107163
 2030-Apr-22 00:00 2462613.500000000  m   29.75233  12.13755  -11.407758072
